{
  "norad_id": 57868,
  "name": "STARLINK-30442",
  "history": [
    {
      "epoch": "2026-03-28T13:28:52.828320Z",
      "apogee_km": 483.6155718459149,
      "perigee_km": 482.4973345369144,
      "latitude_deg": -2.3006332470545364e-05,
      "longitude_deg": 150.3799626600788,
      "height_km": 482.8013295607273,
      "semi_major_axis_km": 6861.193453191415,
      "eccentricity": 8.149e-05,
      "inclination_deg": 42.9989,
      "raan_deg": 178.5805,
      "arg_perigee_deg": 273.199,
      "mean_anomaly_deg": 86.8768,
      "mean_motion_rev_day": 15.27577543
    },
    {
      "epoch": "2026-03-29T05:10:27.066720Z",
      "apogee_km": 483.6604791055879,
      "perigee_km": 482.4830956776714,
      "latitude_deg": -2.4286171550445627e-05,
      "longitude_deg": -89.35158096952877,
      "height_km": 482.9355125258971,
      "semi_major_axis_km": 6861.20878739163,
      "eccentricity": 8.58e-05,
      "inclination_deg": 42.9978,
      "raan_deg": 174.8861,
      "arg_perigee_deg": 261.4271,
      "mean_anomaly_deg": 98.6483,
      "mean_motion_rev_day": 15.27572422
    },
    {
      "epoch": "2026-03-29T22:26:10.406688Z",
      "apogee_km": 483.97869717413596,
      "perigee_km": 482.17008185186114,
      "latitude_deg": 1.418528701451018e-08,
      "longitude_deg": 6.949735366687162,
      "height_km": 482.7865351817062,
      "semi_major_axis_km": 6861.211389512999,
      "eccentricity": 0.0001318,
      "inclination_deg": 43.0039,
      "raan_deg": 170.8269,
      "arg_perigee_deg": 274.1174,
      "mean_anomaly_deg": 85.9527,
      "mean_motion_rev_day": 15.27571553
    },
    {
      "epoch": "2026-03-30T06:16:57.086112Z",
      "apogee_km": 483.35686197532505,
      "perigee_km": 482.5998065093454,
      "latitude_deg": 6.324174796050469e-05,
      "longitude_deg": -112.91353055878153,
      "height_km": 482.5735013885218,
      "semi_major_axis_km": 6861.115334242335,
      "eccentricity": 5.517e-05,
      "inclination_deg": 43.0023,
      "raan_deg": 168.9803,
      "arg_perigee_deg": 298.5643,
      "mean_anomaly_deg": 61.5154,
      "mean_motion_rev_day": 15.27603632
    },
    {
      "epoch": "2026-03-30T12:33:34.592256Z",
      "apogee_km": 483.96340726303333,
      "perigee_km": 482.12941293751373,
      "latitude_deg": -6.369438873788213e-06,
      "longitude_deg": 151.19552919068988,
      "height_km": 482.5988714394381,
      "semi_major_axis_km": 6861.183410100273,
      "eccentricity": 0.00013365,
      "inclination_deg": 43.0022,
      "raan_deg": 167.5035,
      "arg_perigee_deg": 284.1668,
      "mean_anomaly_deg": 75.9035,
      "mean_motion_rev_day": 15.27580897
    }
  ]
}